[{"OBJECT_NAME":"KUZGTU 1 (RS47S)","OBJECT_ID":"2023-091AV","EPOCH":"2026-03-09T22:22:51.965760","MEAN_MOTION":15.27481352,"ECCENTRICITY":0.0012896,"INCLINATION":97.5178,"RA_OF_ASC_NODE":132.5224,"ARG_OF_PERICENTER":89.3666,"MEAN_ANOMALY":270.9051,"EPHEMERIS_TYPE":0,"CLASSIFICATION_TYPE":"U","NORAD_CAT_ID":57217,"ELEMENT_SET_NO":999,"REV_AT_EPOCH":14921,"BSTAR":0.00057711473,"MEAN_MOTION_DOT":0.00015496,"MEAN_MOTION_DDOT":0},{"OBJECT_NAME":"STARLINK-35718","OBJECT_ID":"2025-283S","EPOCH":"2026-03-09T03:36:09.616320","MEAN_MOTION":15.30205121,"ECCENTRICITY":0.00013865,"INCLINATION":53.1623,"RA_OF_ASC_NODE":26.5203,"ARG_OF_PERICENTER":41.6262,"MEAN_ANOMALY":318.4844,"EPHEMERIS_TYPE":0,"CLASSIFICATION_TYPE":"U","NORAD_CAT_ID":66894,"ELEMENT_SET_NO":999,"REV_AT_EPOCH":1576,"BSTAR":0.0013287102,"MEAN_MOTION_DOT":0.00039207,"MEAN_MOTION_DDOT":0}]
